start=new Date('2021-11-22T00:00:00.000Z').valueOf();
sats=[{"SITE":"AFETR","ARG_OF_PERICENTER":"65.7183","OBJECT_ID":"2021-012AQ","PERIAPSIS":"545.949","EPHEMERIS_TYPE":"0","CLASSIFICATION_TYPE":"U","DECAY_DATE":null,"SEMIMAJOR_AXIS":"6925.344","MEAN_ELEMENT_THEORY":"SGP4","ECCENTRICITY":"0.00018190","FILE":"3220742","ELEMENT_SET_NO":"999","NORAD_CAT_ID":"47658","GP_ID":"190207182","EPOCH":"2021-11-21T15:46:27.241536","TLE_LINE2":"2 47658  53.0547 275.2824 0001819  65.7183 294.3995 15.06401480 42988","MEAN_MOTION":"15.06401480","TIME_SYSTEM":"UTC","MEAN_ANOMALY":"294.3995","PERIOD":"95.592","MEAN_MOTION_DOT":"0.00001676","APOAPSIS":"548.469","CENTER_NAME":"EARTH","INCLINATION":"53.0547","OBJECT_TYPE":"PAYLOAD","LAUNCH_DATE":"2021-02-16","BSTAR":"0.00013137000000","COUNTRY_CODE":"US","REF_FRAME":"TEME","RCS_SIZE":"LARGE","TLE_LINE1":"1 47658U 21012AQ  21325.65725974  .00001676  00000-0  13137-3 0  9992","RA_OF_ASC_NODE":"275.2824","OBJECT_NAME":"STARLINK-2042","MEAN_MOTION_DDOT":"0.0000000000000","REV_AT_EPOCH":"4298"},{"SITE":"AFETR","ARG_OF_PERICENTER":"69.0685","OBJECT_ID":"2021-012AR","PERIAPSIS":"420.928","EPHEMERIS_TYPE":"0","CLASSIFICATION_TYPE":"U","DECAY_DATE":null,"SEMIMAJOR_AXIS":"6799.991","MEAN_ELEMENT_THEORY":"SGP4","ECCENTRICITY":"0.00013650","FILE":"3220481","ELEMENT_SET_NO":"999","NORAD_CAT_ID":"47659","GP_ID":"190177325","EPOCH":"2021-11-21T14:00:01.000224","TLE_LINE2":"2 47659  53.0367 158.5135 0001365  69.0685 182.1256 15.48246945 44601","MEAN_MOTION":"15.48246945","TIME_SYSTEM":"UTC","MEAN_ANOMALY":"182.1256","PERIOD":"93.008","MEAN_MOTION_DOT":"-0.01083611","APOAPSIS":"422.784","CENTER_NAME":"EARTH","OBJECT_TYPE":"PAYLOAD","INCLINATION":"53.0367","LAUNCH_DATE":"2021-02-16","BSTAR":"-0.02233100000000","COUNTRY_CODE":"US","REF_FRAME":"TEME","RCS_SIZE":"LARGE","TLE_LINE1":"1 47659U 21012AR  21325.58334491 -.01083611  00000-0 -22331-1 0  9991","RA_OF_ASC_NODE":"158.5135","OBJECT_NAME":"STARLINK-2043","MEAN_MOTION_DDOT":"0.0000000000000","REV_AT_EPOCH":"4460"},{"LAUNCH_DATE":"2021-02-16","BSTAR":"-0.00466830000000","COUNTRY_CODE":"US","TLE_LINE1":"1 47660U 21012AS  21325.58334491 -.00608193  00000-0 -46683-2 0  9997","REF_FRAME":"TEME","RCS_SIZE":"LARGE","OBJECT_NAME":"STARLINK-2044","MEAN_MOTION_DDOT":"0.0000000000000","REV_AT_EPOCH":"4461","RA_OF_ASC_NODE":"157.6700","EPOCH":"2021-11-21T14:00:01.000224","TIME_SYSTEM":"UTC","MEAN_ANOMALY":"82.5713","TLE_LINE2":"2 47660  53.0546 157.6700 0007874 289.4504  82.5713 15.73032326 44615","MEAN_MOTION":"15.73032326","PERIOD":"91.543","OBJECT_TYPE":"PAYLOAD","INCLINATION":"53.0546","MEAN_MOTION_DOT":"-0.00608193","APOAPSIS":"355.536","CENTER_NAME":"EARTH","MEAN_ELEMENT_THEORY":"SGP4","ECCENTRICITY":"0.00078740","DECAY_DATE":null,"SEMIMAJOR_AXIS":"6728.373","ELEMENT_SET_NO":"999","FILE":"3220481","GP_ID":"190176822","NORAD_CAT_ID":"47660","SITE":"AFETR","OBJECT_ID":"2021-012AS","ARG_OF_PERICENTER":"289.4504","PERIAPSIS":"344.940","EPHEMERIS_TYPE":"0","CLASSIFICATION_TYPE":"U"},{"INCLINATION":"53.0547","OBJECT_TYPE":"PAYLOAD","MEAN_MOTION_DOT":"0.00004309","APOAPSIS":"548.571","CENTER_NAME":"EARTH","PERIOD":"95.592","TIME_SYSTEM":"UTC","MEAN_ANOMALY":"290.3145","TLE_LINE2":"2 47661  53.0547 256.9147 0001990  69.8058 290.3145 15.06406771 43704","MEAN_MOTION":"15.06406771","EPOCH":"2021-11-21T06:58:22.017504","MEAN_MOTION_DDOT":"0.0000000000000","OBJECT_NAME":"STARLINK-2051","REV_AT_EPOCH":"4370","RA_OF_ASC_NODE":"256.9147","TLE_LINE1":"1 47661U 21012AT  21325.29053261  .00004309  00000-0  30792-3 0  9991","REF_FRAME":"TEME","RCS_SIZE":"LARGE","BSTAR":"0.00030792000000","COUNTRY_CODE":"US","LAUNCH_DATE":"2021-02-16","CLASSIFICATION_TYPE":"U","PERIAPSIS":"545.815","EPHEMERIS_TYPE":"0","OBJECT_ID":"2021-012AT","ARG_OF_PERICENTER":"69.8058","SITE":"AFETR","GP_ID":"190204714","NORAD_CAT_ID":"47661","ELEMENT_SET_NO":"999","FILE":"3220686","MEAN_ELEMENT_THEORY":"SGP4","ECCENTRICITY":"0.00019900","DECAY_DATE":null,"SEMIMAJOR_AXIS":"6925.328"},{"LAUNCH_DATE":"2021-02-16","COUNTRY_CODE":"US","BSTAR":"0.00004149100000","RCS_SIZE":"MEDIUM","REF_FRAME":"TEME","TLE_LINE1":"1 47662U 21012AU  21325.53652968  .00000336  00000-0  41491-4 0  9993","RA_OF_ASC_NODE":"255.8245","REV_AT_EPOCH":"4324","OBJECT_NAME":"STARLINK-2052","MEAN_MOTION_DDOT":"0.0000000000000","EPOCH":"2021-11-21T12:52:36.164352","TLE_LINE2":"2 47662  53.0546 255.8245 0001986  64.2134 295.9059 15.06393613 43244","MEAN_MOTION":"15.06393613","MEAN_ANOMALY":"295.9059","TIME_SYSTEM":"UTC","PERIOD":"95.593","CENTER_NAME":"EARTH","APOAPSIS":"548.609","MEAN_MOTION_DOT":"0.00000336","INCLINATION":"53.0546","OBJECT_TYPE":"PAYLOAD","SEMIMAJOR_AXIS":"6925.368","DECAY_DATE":null,"ECCENTRICITY":"0.00019860","MEAN_ELEMENT_THEORY":"SGP4","FILE":"3220743","ELEMENT_SET_NO":"999","NORAD_CAT_ID":"47662","GP_ID":"190207186","SITE":"AFETR","ARG_OF_PERICENTER":"64.2134","OBJECT_ID":"2021-012AU","EPHEMERIS_TYPE":"0","PERIAPSIS":"545.858","CLASSIFICATION_TYPE":"U"},{"SEMIMAJOR_AXIS":"6925.382","DECAY_DATE":null,"ECCENTRICITY":"0.00025420","MEAN_ELEMENT_THEORY":"SGP4","FILE":"3220743","ELEMENT_SET_NO":"999","NORAD_CAT_ID":"47663","GP_ID":"190207489","SITE":"AFETR","ARG_OF_PERICENTER":"64.5068","OBJECT_ID":"2021-012AV","EPHEMERIS_TYPE":"0","PERIAPSIS":"545.486","CLASSIFICATION_TYPE":"U","LAUNCH_DATE":"2021-02-16","COUNTRY_CODE":"US","BSTAR":"0.00001745000000","RCS_SIZE":"LARGE","REF_FRAME":"TEME","TLE_LINE1":"1 47663U 21012AV  21325.91667824 -.00000022  00000-0  17450-4 0  9994","RA_OF_ASC_NODE":"174.1007","REV_AT_EPOCH":"4441","OBJECT_NAME":"STARLINK-2053","MEAN_MOTION_DDOT":"0.0000000000000","EPOCH":"2021-11-21T22:00:00.999936","TLE_LINE2":"2 47663  53.0539 174.1007 0002542  64.5068  18.3205 15.06389248 44413","MEAN_MOTION":"15.06389248","MEAN_ANOMALY":"18.3205","TIME_SYSTEM":"UTC","PERIOD":"95.593","CENTER_NAME":"EARTH","APOAPSIS":"549.007","MEAN_MOTION_DOT":"-0.00000022","OBJECT_TYPE":"PAYLOAD","INCLINATION":"53.0539"},{"RA_OF_ASC_NODE":"255.8257","OBJECT_NAME":"STARLINK-2054","MEAN_MOTION_DDOT":"0.0000000000000","REV_AT_EPOCH":"4376","REF_FRAME":"TEME","RCS_SIZE":"LARGE","TLE_LINE1":"1 47664U 21012AW  21325.53747553 -.00000289  00000-0 -49438-6 0  9990","BSTAR":"-0.00000049438000","COUNTRY_CODE":"US","LAUNCH_DATE":"2021-02-16","MEAN_MOTION_DOT":"-0.00000289","CENTER_NAME":"EARTH","APOAPSIS":"548.492","INCLINATION":"53.0546","OBJECT_TYPE":"PAYLOAD","PERIOD":"95.593","MEAN_MOTION":"15.06392188","TLE_LINE2":"2 47664  53.0546 255.8257 0001811  66.9779 293.1401 15.06392188 43764","TIME_SYSTEM":"UTC","MEAN_ANOMALY":"293.1401","EPOCH":"2021-11-21T12:53:57.885792","NORAD_CAT_ID":"47664","GP_ID":"190204468","FILE":"3220686","ELEMENT_SET_NO":"999","DECAY_DATE":null,"SEMIMAJOR_AXIS":"6925.373","MEAN_ELEMENT_THEORY":"SGP4","ECCENTRICITY":"0.00018110","CLASSIFICATION_TYPE":"U","PERIAPSIS":"545.983","EPHEMERIS_TYPE":"0","ARG_OF_PERICENTER":"66.9779","OBJECT_ID":"2021-012AW","SITE":"AFETR"},{"CLASSIFICATION_TYPE":"U","EPHEMERIS_TYPE":"0","PERIAPSIS":"542.703","ARG_OF_PERICENTER":"31.9579","OBJECT_ID":"2021-012AX","SITE":"AFETR","NORAD_CAT_ID":"47665","GP_ID":"190207191","FILE":"3220743","ELEMENT_SET_NO":"999","SEMIMAJOR_AXIS":"6925.378","DECAY_DATE":null,"ECCENTRICITY":"0.00065560","MEAN_ELEMENT_THEORY":"SGP4","CENTER_NAME":"EARTH","APOAPSIS":"551.784","MEAN_MOTION_DOT":"0.00001608","INCLINATION":"53.0529","OBJECT_TYPE":"PAYLOAD","PERIOD":"95.593","MEAN_MOTION":"15.06390309","TLE_LINE2":"2 47665  53.0529 249.7291 0006556  31.9579 328.1807 15.06390309 43343","MEAN_ANOMALY":"328.1807","TIME_SYSTEM":"UTC","EPOCH":"2021-11-21T18:40:56.142048","RA_OF_ASC_NODE":"249.7291","REV_AT_EPOCH":"4334","MEAN_MOTION_DDOT":"0.0000000000000","OBJECT_NAME":"STARLINK-2056","RCS_SIZE":"LARGE","REF_FRAME":"TEME","TLE_LINE1":"1 47665U 21012AX  21325.77842757  .00001608  00000-0  12698-3 0  9998","COUNTRY_CODE":"US","BSTAR":"0.00012698000000","LAUNCH_DATE":"2021-02-16"},{"ECCENTRICITY":"0.00021530","MEAN_ELEMENT_THEORY":"SGP4","SEMIMAJOR_AXIS":"6925.346","DECAY_DATE":null,"GP_ID":"190203968","NORAD_CAT_ID":"47666","ELEMENT_SET_NO":"999","FILE":"3220686","OBJECT_ID":"2021-012AY","ARG_OF_PERICENTER":"60.7440","SITE":"AFETR","CLASSIFICATION_TYPE":"U","EPHEMERIS_TYPE":"0","PERIAPSIS":"545.720","COUNTRY_CODE":"US","BSTAR":"0.00016381000000","LAUNCH_DATE":"2021-02-16","REV_AT_EPOCH":"4379","OBJECT_NAME":"STARLINK-2057","MEAN_MOTION_DDOT":"0.0000000000000","RA_OF_ASC_NODE":"251.9637","TLE_LINE1":"1 47666U 21012AY  21325.28081210  .00002159  00000-0  16381-3 0  9999","RCS_SIZE":"MEDIUM","REF_FRAME":"TEME","MEAN_ANOMALY":"299.3764","TIME_SYSTEM":"UTC","MEAN_MOTION":"15.06400858","TLE_LINE2":"2 47666  53.0556 251.9637 0002153  60.7440 299.3764 15.06400858 43790","EPOCH":"2021-11-21T06:44:22.165440","INCLINATION":"53.0556","OBJECT_TYPE":"PAYLOAD","APOAPSIS":"548.702","CENTER_NAME":"EARTH","MEAN_MOTION_DOT":"0.00002159","PERIOD":"95.592"},{"PERIOD":"95.593","OBJECT_TYPE":"PAYLOAD","INCLINATION":"53.0551","MEAN_MOTION_DOT":"-0.00000231","APOAPSIS":"548.332","CENTER_NAME":"EARTH","EPOCH":"2021-11-21T05:41:22.247520","TIME_SYSTEM":"UTC","MEAN_ANOMALY":"288.7651","TLE_LINE2":"2 47667  53.0551 277.1721 0001570  71.3508 288.7651 15.06389938 43416","MEAN_MOTION":"15.06389938","TLE_LINE1":"1 47667U 21012AZ  21325.23706305 -.00000231  00000-0  33626-5 0  9997","REF_FRAME":"TEME","RCS_SIZE":"LARGE","MEAN_MOTION_DDOT":"0.0000000000000","OBJECT_NAME":"STARLINK-2058","REV_AT_EPOCH":"4341","RA_OF_ASC_NODE":"277.1721","LAUNCH_DATE":"2021-02-16","BSTAR":"0.00000336260000","COUNTRY_CODE":"US","PERIAPSIS":"546.157","EPHEMERIS_TYPE":"0","CLASSIFICATION_TYPE":"U","SITE":"AFETR","OBJECT_ID":"2021-012AZ","ARG_OF_PERICENTER":"71.3508","ELEMENT_SET_NO":"999","FILE":"3220686","GP_ID":"190204218","NORAD_CAT_ID":"47667","MEAN_ELEMENT_THEORY":"SGP4","ECCENTRICITY":"0.00015700","DECAY_DATE":null,"SEMIMAJOR_AXIS":"6925.379"}];
